$$SOE
2461288.500000000, A.D. 2026-Sep-05 00:00:00.0000, 1.096204029186545E+08, -4.396084736576407E+08, -1.088978636410675E+08,
2461295.500000000, A.D. 2026-Sep-12 00:00:00.0000, 1.170724775844410E+08, -4.376203524451540E+08, -1.119198978124796E+08,
2461302.500000000, A.D. 2026-Sep-19 00:00:00.0000, 1.244686383230798E+08, -4.354231678148852E+08, -1.148884573220429E+08,
2461309.500000000, A.D. 2026-Sep-26 00:00:00.0000, 1.318055708920162E+08, -4.330187451508527E+08, -1.178023277422121E+08,
2461316.500000000, A.D. 2026-Oct-03 00:00:00.0000, 1.390799838439409E+08, -4.304088954376464E+08, -1.206603025471945E+08,
2461323.500000000, A.D. 2026-Oct-10 00:00:00.0000, 1.462886048801879E+08, -4.275954163936157E+08, -1.234611816723440E+08,
2461330.500000000, A.D. 2026-Oct-17 00:00:00.0000, 1.534281772493943E+08, -4.245800937489541E+08, -1.262037701232437E+08,
2461337.500000000, A.D. 2026-Oct-24 00:00:00.0000, 1.604954562069848E+08, -4.213647026907762E+08, -1.288868766343414E+08,
2461344.500000000, A.D. 2026-Oct-31 00:00:00.0000, 1.674872056264735E+08, -4.179510095421558E+08, -1.315093123877944E+08,
2461351.500000000, A.D. 2026-Nov-07 00:00:00.0000, 1.744001950944970E+08, -4.143407736027110E+08, -1.340698898142749E+08,
2461358.500000000, A.D. 2026-Nov-14 00:00:00.0000, 1.812311976832712E+08, -4.105357482662989E+08, -1.365674214187649E+08,
2461365.500000000, A.D. 2026-Nov-21 00:00:00.0000, 1.879769865810319E+08, -4.065376807373243E+08, -1.390007184065232E+08,
2461372.500000000, A.D. 2026-Nov-28 00:00:00.0000, 1.946343295746039E+08, -4.023483133563293E+08, -1.413685892601582E+08,
2461379.500000000, A.D. 2026-Dec-05 00:00:00.0000, 2.011999849970407E+08, -3.979693871939061E+08, -1.436698386502122E+08,
2461386.500000000, A.D. 2026-Dec-12 00:00:00.0000, 2.076706992995245E+08, -3.934026448065305E+08, -1.459032664377566E+08,
2461393.500000000, A.D. 2026-Dec-19 00:00:00.0000, 2.140432043542968E+08, -3.886498321536158E+08, -1.480676665933339E+08,
2461400.500000000, A.D. 2026-Dec-26 00:00:00.0000, 2.203142143400740E+08, -3.837127005498874E+08, -1.501618260881149E+08,
2461407.500000000, A.D. 2027-Jan-02 00:00:00.0000, 2.264804224795568E+08, -3.785930088506017E+08, -1.521845237963081E+08,
2461414.500000000, A.D. 2027-Jan-09 00:00:00.0000, 2.325384977394972E+08, -3.732925258567483E+08, -1.541345294162187E+08,
2461421.500000000, A.D. 2027-Jan-16 00:00:00.0000, 2.384850815217681E+08, -3.678130329393072E+08, -1.560106024108801E+08,
2461428.500000000, A.D. 2027-Jan-23 00:00:00.0000, 2.443167843844024E+08, -3.621563269304551E+08, -1.578114909741716E+08,
2461435.500000000, A.D. 2027-Jan-30 00:00:00.0000, 2.500301829738040E+08, -3.563242233383865E+08, -1.595359310423347E+08,
2461442.500000000, A.D. 2027-Feb-06 00:00:00.0000, 2.556218175870740E+08, -3.503185595560360E+08, -1.611826453616108E+08,
2461449.500000000, A.D. 2027-Feb-13 00:00:00.0000, 2.610881898984328E+08, -3.441411968562109E+08, -1.627503424703408E+08,
2461456.500000000, A.D. 2027-Feb-20 00:00:00.0000, 2.664257584795030E+08, -3.377940219771641E+08, -1.642377154434412E+08,
2461463.500000000, A.D. 2027-Feb-27 00:00:00.0000, 2.716309335031120E+08, -3.312789515247011E+08, -1.656434407893530E+08,
2461470.500000000, A.D. 2027-Mar-06 00:00:00.0000, 2.767000736442481E+08, -3.245979372813586E+08, -1.669661776190986E+08,
2461477.500000000, A.D. 2027-Mar-13 00:00:00.0000, 2.816294835747387E+08, -3.177529703887007E+08, -1.682045667742504E+08,
2461484.500000000, A.D. 2027-Mar-20 00:00:00.0000, 2.864154109191648E+08, -3.107460852546310E+08, -1.693572298799290E+08,
2461491.500000000, A.D. 2027-Mar-27 00:00:00.0000, 2.910540428711336E+08, -3.035793637532310E+08, -1.704227683879566E+08,
2461498.500000000, A.D. 2027-Apr-03 00:00:00.0000, 2.955415026701977E+08, -2.962549397850319E+08, -1.713997626347650E+08,
2461505.500000000, A.D. 2027-Apr-10 00:00:00.0000, 2.998738459981370E+08, -2.887750041966540E+08, -1.722867709201501E+08,
2461512.500000000, A.D. 2027-Apr-17 00:00:00.0000, 3.040470573139755E+08, -2.811418100977774E+08, -1.730823286123263E+08,
2461519.500000000, A.D. 2027-Apr-24 00:00:00.0000, 3.080570462043275E+08, -2.733576786623172E+08, -1.737849472934604E+08,
2461526.500000000, A.D. 2027-May-01 00:00:00.0000, 3.118996440474393E+08, -2.654250054114557E+08, -1.743931139727620E+08,
2461533.500000000, A.D. 2027-May-08 00:00:00.0000, 3.155706012998495E+08, -2.573462662575837E+08, -1.749052903375892E+08,
2461540.500000000, A.D. 2027-May-15 00:00:00.0000, 3.190655839126430E+08, -2.491240223871489E+08, -1.753199118332292E+08,
2461547.500000000, A.D. 2027-May-22 00:00:00.0000, 3.223801673175367E+08, -2.407609266091279E+08, -1.756353866467864E+08,
2461554.500000000, A.D. 2027-May-29 00:00:00.0000, 3.255098313433018E+08, -2.322597326745189E+08, -1.758500950303529E+08,
2461561.500000000, A.D. 2027-Jun-05 00:00:00.0000, 3.284499569543229E+08, -2.236233044755336E+08, -1.759623887976656E+08,
2461568.500000000, A.D. 2027-Jun-12 00:00:00.0000, 3.311958228127365E+08, -2.148546247375211E+08, -1.759705907854476E+08,
2461575.500000000, A.D. 2027-Jun-19 00:00:00.0000, 3.337426013436922E+08, -2.059568041869836E+08, -1.758729943369944E+08,
2461582.500000000, A.D. 2027-Jun-26 00:00:00.0000, 3.360853545962113E+08, -1.969330915086504E+08, -1.756678628677222E+08,
2461589.500000000, A.D. 2027-Jul-03 00:00:00.0000, 3.382190300481547E+08, -1.877868841388000E+08, -1.753534295387217E+08,
2461596.500000000, A.D. 2027-Jul-10 00:00:00.0000, 3.401384564123977E+08, -1.785217399460817E+08, -1.749278970579519E+08,
2461603.500000000, A.D. 2027-Jul-17 00:00:00.0000, 3.418383395049571E+08, -1.691413899036650E+08, -1.743894376350848E+08,
2461610.500000000, A.D. 2027-Jul-24 00:00:00.0000, 3.433132583603430E+08, -1.596497518854074E+08, -1.737361931314471E+08,
2461617.500000000, A.D. 2027-Jul-31 00:00:00.0000, 3.445576620402748E+08, -1.500509454247908E+08, -1.729662754484641E+08,
2461624.500000000, A.D. 2027-Aug-07 00:00:00.0000, 3.455658669783035E+08, -1.403493063646378E+08, -1.720777670720847E+08,
2461631.500000000, A.D. 2027-Aug-14 00:00:00.0000, 3.463320526113434E+08, -1.305494017390929E+08, -1.710687216188650E+08,
2461638.500000000, A.D. 2027-Aug-21 00:00:00.0000, 3.468502559749346E+08, -1.206560483476158E+08, -1.699371647547501E+08,
2461645.500000000, A.D. 2027-Aug-28 00:00:00.0000, 3.471143687608546E+08, -1.106743339174392E+08, -1.686810957457998E+08,
2461652.500000000, A.D. 2027-Sep-04 00:00:00.0000, 3.471181357373340E+08, -1.006096384576300E+08, -1.672984893780262E+08,
2461659.500000000, A.D. 2027-Sep-11 00:00:00.0000, 3.468551532328553E+08, -9.046765657888030E+07, -1.657872982302828E+08,
2461666.500000000, A.D. 2027-Sep-18 00:00:00.0000, 3.463188679290081E+08, -8.025442154838872E+07, -1.641454554312731E+08,
2461673.500000000, A.D. 2027-Sep-25 00:00:00.0000, 3.455025763222908E+08, -6.997633128211831E+07, -1.623708780027696E+08,
2461680.500000000, A.D. 2027-Oct-02 00:00:00.0000, 3.443994250829249E+08, -5.964017637653511E+07, -1.604614708791081E+08,
2461687.500000000, A.D. 2027-Oct-09 00:00:00.0000, 3.430024125115904E+08, -4.925317031854309E+07, -1.584151317031466E+08,
2461694.500000000, A.D. 2027-Oct-16 00:00:00.0000, 3.413043913646069E+08, -3.882298206666633E+07, -1.562297565204447E+08,
2461701.500000000, A.D. 2027-Oct-23 00:00:00.0000, 3.392980735467053E+08, -2.835777114977022E+07, -1.539032465216547E+08,
2461708.500000000, A.D. 2027-Oct-30 00:00:00.0000, 3.369760373213639E+08, -1.786622481144109E+07, -1.514335159581956E+08,
2461715.500000000, A.D. 2027-Nov-06 00:00:00.0000, 3.343307361957610E+08, -7.357596203415722E+06, -1.488185011927291E+08,
2461722.500000000, A.D. 2027-Nov-13 00:00:00.0000, 3.313545078681802E+08, 3.158254169944301E+06, -1.460561710563809E+08,
2461729.500000000, A.D. 2027-Nov-20 00:00:00.0000, 3.280395865647080E+08, 1.367081145552231E+07, -1.431445391615173E+08,
2461736.500000000, A.D. 2027-Nov-27 00:00:00.0000, 3.243781208669018E+08, 2.416885677852123E+07, -1.400816783015696E+08,
2461743.500000000, A.D. 2027-Dec-04 00:00:00.0000, 3.203621955634944E+08, 3.464041575023813E+07, -1.368657369314811E+08,
2461750.500000000, A.D. 2027-Dec-11 00:00:00.0000, 3.159838576120904E+08, 4.507270417834406E+07, -1.334949580411153E+08,
2461757.500000000, A.D. 2027-Dec-18 00:00:00.0000, 3.112351472092270E+08, 5.545207068327010E+07, -1.299677007893620E+08,
2461764.500000000, A.D. 2027-Dec-25 00:00:00.0000, 3.061081349393573E+08, 6.576393633609939E+07, -1.262824652596181E+08,
2461771.500000000, A.D. 2028-Jan-01 00:00:00.0000, 3.005949659655787E+08, 7.599273154636690E+07, -1.224379207173903E+08,
$$EOE